H1 CPF 01  gfz 2021 01 13 01  5131 terrasarx 
H2 0702601  6201 31698    2021 01 13 00 59 42 2021 01 18 00 00 42   120 1 1  0 0 0
H9
10 0 59231  38862.000000  0    2296577.630  -6360023.831   1310578.522
10 0 59231  38982.000000  0    2165186.247  -6526867.922    413241.513
10 0 59231  39102.000000  0    1994051.120  -6576986.699   -491372.478
10 0 59231  39222.000000  0    1788237.598  -6508909.701  -1387343.493
10 0 59231  39342.000000  0    1553426.104  -6323346.484  -2258924.228
10 0 59231  39462.000000  0    1295770.339  -6023177.416  -3090823.996
10 0 59231  39582.000000  0    1021748.321  -5613397.944  -3868481.913
10 0 59231  39702.000000  0     738010.653  -5101023.889  -4578321.775
10 0 59231  39822.000000  0     451227.897  -4494958.935  -5207985.975
10 0 59231  39942.000000  0     167941.797  -3805828.580  -5746543.849
10 0 59231  40062.000000  0    -105576.622  -3045784.136  -6184672.237
10 0 59231  40182.000000  0    -363459.056  -2228281.912  -6514805.613
10 0 59231  40302.000000  0    -600359.819  -1367842.222  -6731255.255
10 0 59231  40422.000000  0    -811561.540   -479792.880  -6830297.578
10 0 59231  40542.000000  0    -993064.990    420000.272  -6810231.223
10 0 59231  40662.000000  0   -1141662.353   1315410.016  -6671401.884
10 0 59231  40782.000000  0   -1254992.649   2190329.415  -6416196.896
10 0 59231  40902.000000  0   -1331578.493   3028954.187  -6049009.075
10 0 59231  41022.000000  0   -1370844.366   3816064.546  -5576170.465
10 0 59231  41142.000000  0   -1373115.385   4537300.311  -5005853.363
10 0 59231  41262.000000  0   -1339596.977   5179426.044  -4347940.952
10 0 59231  41382.000000  0   -1272335.503   5730580.803  -3613865.890
10 0 59231  41502.000000  0   -1174159.801   6180505.902  -2816419.481
10 0 59231  41622.000000  0   -1048604.990   6520746.820  -1969534.990
10 0 59231  41742.000000  0    -899819.852   6744824.566  -1088045.885
10 0 59231  41862.000000  0    -732460.065   6848369.870   -187424.698
10 0 59231  41982.000000  0    -551568.919   6829218.828    716493.182
10 0 59231  42102.000000  0    -362449.055   6687464.709   1607796.926
10 0 59231  42222.000000  0    -170528.694   6425461.540   2470790.934
10 0 59231  42342.000000  0      18773.823   6047781.411   3290278.842
10 0 59231  42462.000000  0     200184.176   5561129.459   4051836.515
10 0 59231  42582.000000  0     368701.628   4974219.818   4742071.747
10 0 59231  42702.000000  0     519721.067   4297605.617   5348864.448
10 0 59231  42822.000000  0     649144.081   3543478.188   5861573.356
10 0 59231  42942.000000  0     753477.395   2725440.532   6271219.766
10 0 59231  43062.000000  0     829914.967   1858254.373   6570639.182
10 0 59231  43182.000000  0     876403.665    957569.229   6754600.653
10 0 59231  43302.000000  0     891691.143     39637.615   6819891.980
10 0 59231  43422.000000  0     875355.084   -878976.953   6765372.358
10 0 59231  43542.000000  0     827813.101  -1781698.561   6591992.306
10 0 59231  43662.000000  0     750313.161  -2652237.685   6302778.466
10 0 59231  43782.000000  0     644904.707  -3474886.728   5902784.320
10 0 59231  43902.000000  0     514390.598  -4234805.077   5399004.518
10 0 59231  44022.000000  0     362262.427  -4918288.896   4800258.652
10 0 59231  44142.000000  0     192619.384  -5513024.594   4117044.538
10 0 59231  44262.000000  0      10070.915  -6008321.181   3361358.909
10 0 59231  44382.000000  0    -180374.417  -6395313.048   2546488.298
10 0 59231  44502.000000  0    -373430.823  -6667128.368   1686773.638
10 0 59231  44622.000000  0    -563665.263  -6819019.592    797355.120
10 0 59231  44742.000000  0    -745632.609  -6848454.608   -106101.956
10 0 59231  44862.000000  0    -914012.217  -6755160.493  -1007693.199
10 0 59231  44982.000000  0   -1063741.497  -6541120.905  -1891564.127
10 0 59231  45102.000000  0   -1190143.824  -6210529.051  -2742196.092
10 0 59231  45222.000000  0   -1289048.018  -5769697.626  -3544684.528
10 0 59231  45342.000000  0   -1356896.087  -5226927.015  -4285003.294
10 0 59231  45462.000000  0   -1390836.304  -4592335.942  -4950248.403
10 0 59231  45582.000000  0   -1388799.980  -3877661.216  -5528857.108
10 0 59231  45702.000000  0   -1349560.464  -3096031.453  -6010800.551
10 0 59231  45822.000000  0   -1272773.261  -2261719.268  -6387747.661
10 0 59231  45942.000000  0   -1158996.900  -1389877.025  -6653197.626
10 0 59231  46062.000000  0   -1009694.784   -496262.496  -6802580.868
10 0 59231  46182.000000  0    -827218.019    403042.095  -6833329.174
10 0 59231  46302.000000  0    -614768.411   1291912.807  -6744914.102
10 0 59231  46422.000000  0    -376343.577   2154465.426  -6538854.925
10 0 59231  46542.000000  0    -116664.983   2975332.116  -6218696.068
10 0 59231  46662.000000  0     158911.892   3739931.555  -5789954.281
10 0 59231  46782.000000  0     444503.601   4434726.962  -5260032.461
10 0 59231  46902.000000  0     733818.168   5047467.461  -4638103.220
10 0 59231  47022.000000  0    1020287.061   5567410.970  -3934961.547
10 0 59231  47142.000000  0    1297207.333   5985521.922  -3162846.507
10 0 59231  47262.000000  0    1557890.613   6294639.595  -2335235.285
10 0 59231  47382.000000  0    1795816.016   6489613.517  -1466611.359
10 0 59231  47502.000000  0    2004783.485   6567401.134   -572209.999
10 0 59231  47622.000000  0    2179063.229   6527123.644    332253.797
10 0 59231  47742.000000  0    2313537.031   6370078.534   1230868.171
10 0 59231  47862.000000  0    2403828.342   6099708.766   2107812.093
10 0 59231  47982.000000  0    2446417.483   5721529.030   2947641.986
10 0 59231  48102.000000  0    2438739.610   5243011.280   3735571.233
10 0 59231  48222.000000  0    2379262.183   4673431.948   4457737.174
10 0 59231  48342.000000  0    2267539.575   4023683.234   5101450.318
10 0 59231  48462.000000  0    2104243.061   3306053.132   5655415.573
10 0 59231  48582.000000  0    1891168.921   2533986.319   6109925.725
10 0 59231  48702.000000  0    1631222.932   1721826.686   6457027.565
10 0 59231  48822.000000  0    1328380.829    884545.477   6690655.398
10 0 59231  48942.000000  0     987626.596     37463.033   6806729.634
10 0 59231  49062.000000  0     614870.174   -804030.036   6803223.812
10 0 59231  49182.000000  0     216844.753  -1624752.528   6680199.282
10 0 59231  49302.000000  0    -199015.031  -2410006.432   6439803.973
10 0 59231  49422.000000  0    -624711.744  -3145840.835   6086236.732
10 0 59231  49542.000000  0   -1051836.845  -3819300.519   5625676.209
10 0 59231  49662.000000  0   -1471733.661  -4418655.378   5066179.290
10 0 59231  49782.000000  0   -1875671.801  -4933610.506   4417549.013
10 0 59231  49902.000000  0   -2255028.735  -5355492.427   3691168.862
10 0 59231  50022.000000  0   -2601473.745  -5677404.637   2899804.556
10 0 59231  50142.000000  0   -2907149.283  -5894347.292   2057378.723
10 0 59231  50262.000000  0   -3164846.050  -6003300.615   1178723.214
10 0 59231  50382.000000  0   -3368167.719  -6003269.471    279312.403
10 0 59231  50502.000000  0   -3511680.865  -5895287.286   -625016.879
10 0 59231  50622.000000  0   -3591046.339  -5682379.062  -1518353.226
10 0 59231  50742.000000  0   -3603128.491  -5369483.530  -2384999.612
10 0 59231  50862.000000  0   -3546079.572  -4963336.966  -3209756.534
10 0 59231  50982.000000  0   -3419396.800  -4472322.012  -3978192.918
10 0 59231  51102.000000  0   -3223951.294  -3906286.884  -4676898.482
10 0 59231  51222.000000  0   -2961989.466  -3276340.373  -5293713.949
10 0 59231  51342.000000  0   -2637107.365  -2594627.079  -5817935.465
10 0 59231  51462.000000  0   -2254198.981  -1874088.847  -6240490.762
10 0 59231  51582.000000  0   -1819379.054  -1128216.923  -6554085.828
10 0 59231  51702.000000  0   -1339882.683   -370799.644  -6753318.956
10 0 59231  51822.000000  0    -823945.092    384328.731  -6834762.688
10 0 59231  51942.000000  0    -280662.379   1123534.307  -6797016.286
10 0 59231  52062.000000  0     280165.198   1833623.367  -6640726.896
10 0 59231  52182.000000  0     848204.358   2502071.721  -6368581.136
10 0 59231  52302.000000  0    1412775.708   3117242.530  -5985265.232
10 0 59231  52422.000000  0    1963050.168   3668587.823  -5497391.921
10 0 59231  52542.000000  0    2488253.355   4146830.255  -4913396.949
10 0 59231  52662.000000  0    2977874.793   4544123.656  -4243404.937
10 0 59231  52782.000000  0    3421878.066   4854189.154  -3499064.091
10 0 59231  52902.000000  0    3810907.882   5072422.657  -2693352.019
10 0 59231  53022.000000  0    4136489.916   5195970.830  -1840353.797
10 0 59231  53142.000000  0    4391216.655   5223773.043   -955017.052
10 0 59231  53262.000000  0    4568916.150   5156569.224    -52887.236
10 0 59231  53382.000000  0    4664798.093   4996869.546    850171.780
10 0 59231  53502.000000  0    4675571.810   4748888.371   1738263.679
10 0 59231  53622.000000  0    4599536.472   4418446.023   2595746.996
10 0 59231  53742.000000  0    4436639.360   4012836.852   3407520.838
10 0 59231  53862.000000  0    4188498.021   3540667.724   4159298.073
10 0 59231  53982.000000  0    3858389.027   3011672.220   4837859.968
10 0 59231  54102.000000  0    3451204.827   2436506.594   5431290.925
10 0 59231  54222.000000  0    2973374.702   1826529.571   5929186.180
10 0 59231  54342.000000  0    2432758.249   1193574.743   6322828.571
10 0 59231  54462.000000  0    1838511.850    549717.942   6605334.866
10 0 59231  54582.000000  0    1200930.349    -92952.938   6771769.513
10 0 59231  54702.000000  0     531266.788   -722563.739   6819227.273
10 0 59231  54822.000000  0    -158467.081  -1327673.900   6746880.829
10 0 59231  54942.000000  0    -855716.348  -1897483.907   6555993.726
10 0 59231  55062.000000  0   -1547610.935  -2422028.073   6249898.385
10 0 59231  55182.000000  0   -2221200.728  -2892348.426   5833940.794
10 0 59231  55302.000000  0   -2863696.942  -3300649.638   5315395.102
99
